#aV2022  6  8  0  0  0.00000000     288 DD+AD WGS84 FIT  NGA
## 2213 259200.00000000   300.00000000 59738 0.0000000000000
+   32     1  2  3  4  5  6  7  8  9 10 11 12 13 14 15 16 17
+         18 19 20 21 22 23 24 25 26 27 28 29 30 31 32  0  0
+          0  0  0  0  0  0  0  0  0  0  0  0  0  0  0  0  0
+          0  0  0  0  0  0  0  0  0  0  0  0  0  0  0  0  0
+          0  0  0  0  0  0  0  0  0  0  0  0  0  0  0  0  0
++         2  2  2  2  2  2  2  2  2  2  2  2  2  2  2  2  2
++         2  2  2  2  2  2  2  2  2  2  2  2  2  2  2  0  0
++         0  0  0  0  0  0  0  0  0  0  0  0  0  0  0  0  0
++         0  0  0  0  0  0  0  0  0  0  0  0  0  0  0  0  0
++         0  0  0  0  0  0  0  0  0  0  0  0  0  0  0  0  0
%c cc cc ccc ccc cccc cccc cccc cccc ccccc ccccc ccccc ccccc
%c cc cc ccc ccc cccc cccc cccc cccc ccccc ccccc ccccc ccccc
%f  0.0000000  0.000000000  0.00000000000  0.000000000000000
%f  0.0000000  0.000000000  0.00000000000  0.000000000000000
%i    0    0    0    0      0      0      0      0         0
%i    0    0    0    0      0      0      0      0         0
/*      NGA, ST. LOUIS,MO.                                  
/*   EPHEMERIS COMPUTED FROM 2 DAYS OF DATA                 
/*   EPOCHA v7 SMOOTHER                                     
/*   G2139 IERS2010 SATIGS SATAPC                           
*  2022  6  8  4 25  0.00000000
P  1 -16375.162475  -4007.846905  20316.123203    345.861293                    
V  1  -9956.205127 -24362.831355 -12306.737935     -0.079690                    
P  2  14910.158609  21391.836275  -3935.592419   -652.860085                    
V  2    342.284268   6467.183957  31447.918186      0.002895                    
P  3 -19053.934927   6714.268582  17067.703639   -271.543496                    
V  3  11442.712082 -18747.564503  20129.498975     -0.122970                    
P  4 -26328.746694   -852.944898  -3732.259965   -159.334479                    
V  4  -4345.342133  -3299.534923  31235.008066      0.039511                    
P  5  12892.054491   8211.130120 -21890.411496    -84.742062                    
V  5 -15032.597029  22898.590065   -119.824464     -0.013792                    
P  6   4607.029300  24594.542863   8849.137335    334.855029                    
V  6  -6249.339398  -9412.037181  29690.452107      0.153173                    
P  7  -9985.290200  13150.654461 -20290.929263    321.995940                    
V  7 -12135.025841 -23977.827741  -9870.746357     -0.003553                    
P  8 -25692.976770  -5485.974120  -5080.960998    -71.251996                    
V  8   6494.124100  -1882.586102 -30714.054009     -0.015332                    
P  9 -21945.311229   7543.713600 -13010.599148   -330.257708                    
V  9 -16185.729389  -3655.591614  25278.211812      0.032536                    
P 10  10162.845132 -23204.736353   7606.790262   -446.289004                    
V 10   7523.927007  -6336.155231 -30242.440078     -0.151558                    
P 11  12674.512248  22792.511798  -5086.930026    -16.746635                    
V 11   -135.107882   6974.208537  30916.527338      0.030787                    
P 12  18280.194064  -1757.070359  18881.426125   -227.772785                    
V 12 -14594.126565  19795.437437  15855.470337     -0.058503                    
P 13  19769.033662  13248.469345 -12128.842592    325.991121                    
V 13 -15135.797700  -1543.756975 -26520.775352      0.069262                    
P 14 -12027.769951  22785.707650   6240.437280   -111.031217                    
V 14  -7261.304014   4438.681211 -30291.796218     -0.008869                    
P 15  26223.059897   2750.481773  -4792.240332    -54.948239                    
V 15  -5443.730020   3546.495443 -30078.092011      0.029862                    
P 16  -8087.771151 -13404.630760 -21668.035835   -507.328786                    
V 16  18045.072973 -19980.271948   6143.938149     -0.028605                    
P 17  -6567.076384  13972.085213  22048.766021    622.381352                    
V 17 -26525.181486  -4555.060814  -5064.792258      0.046679                    
P 18  10012.898656 -12894.674026 -20937.168482    148.286879                    
V 18  11221.255914  24079.561111  -9577.798903     -0.106438                    
P 19   2889.573933  15275.949312  21308.065286    167.835133                    
V 19 -27101.152995  -5148.431517   7066.930170      0.049996                    
P 20   5595.685558  18500.666868 -18309.012413    512.893781                    
V 20 -11847.135322  20050.741271  16407.574667     -0.010302                    
P 21 -18919.001261 -12688.925770  14845.715763    161.303317                    
V 21  -7206.674336 -16001.032407 -23219.795049      0.000410                    
P 22  -5848.877850 -15907.061474  20909.994726    272.205400                    
V 22  25281.089243   3851.060639  10032.887431      0.062660                    
P 23  16505.195986 -20478.495125  -3273.766382    -26.776175                    
V 23   -150.464191   4906.069878 -31647.701984     -0.021729                    
P 24  18666.560096   7219.109588  17355.532727    225.438735                    
V 24   9220.859236  20685.049018 -17794.654171     -0.080686                    
P 25  19063.560326 -15497.044420   9449.226785    334.694751                    
V 25  -4804.562056  11907.618160  28629.073956      0.046840                    
P 26   -473.772635 -21144.635920 -15964.345138    210.949807                    
V 26  13008.041658 -15795.917045  20955.398627      0.024563                    
P 27 -17616.910969 -12573.022311 -15870.500213    213.363259                    
V 27  19622.818631    478.308643 -22083.831245      0.039206                    
P 28  -5495.962814  21847.874646  14760.154779    342.407654                    
V 28 -12848.348596  12359.783683 -23688.491482     -0.079750                    
P 29  22282.935937  -5332.542158 -13549.089436   -521.849784                    
V 29  16512.803265   4566.934875  25390.815332     -0.038462                    
P 30  -3019.738826  21325.750488 -15290.195983   -530.691171                    
V 30 -10342.174120 -17031.230651 -21841.425364     -0.012321                    
P 31  -5960.325236 -24881.657720   6026.618071   -180.915696                    
V 31   6139.708779   6001.259928  30655.871898     -0.015638                    
P 32   3036.917950 -15101.623164  21775.643898   -145.926107                    
V 32  27187.916100   2701.056247  -2116.889611     -0.091988                    
EOF
